EUTELSAT 8 WEST B       
1 40875U 15039B   26024.21546795 -.00000051  00000+0  00000+0 0  9990
2 40875   0.0660  14.9301 0004022 288.5759 249.5911  1.00270841 38216
EUTELSAT 9B             
1 41310U 16005A   26024.21884798  .00000076  00000+0  00000+0 0  9993
2 41310   0.0160  42.2293 0004674 252.2354 276.8414  1.00269746 36673
EUTELSAT 65 WEST A      
1 41382U 16014A   26024.27544162 -.00000261  00000+0  00000+0 0  9993
2 41382   0.0752 305.5820 0002272 355.4015 216.5746  1.00270792 36090
EUTELSAT 117 WEST B     
1 41589U 16038B   26024.25600263  .00000004  00000+0  00000+0 0  9995
2 41589   0.0042 128.6398 0000455 258.6731  71.4205  1.00268880 35222
EUTELSAT 172B           
1 42741U 17029B   26024.25108816  .00000009  00000+0  00000+0 0  9999
2 42741   0.0268 124.8562 0000111 113.6978 147.3924  1.00270911 32288
EUTELSAT 7C             
1 44334U 19034B   26024.21841464  .00000063  00000+0  00000+0 0  9996
2 44334   0.0779 186.5344 0003448 104.7790 277.8318  1.00272073  5396
EUTELSAT 5 WEST B       
1 44624U 19067A   26024.28740170 -.00000027  00000+0  00000+0 0  9994
2 44624   0.0748 324.4268 0003169 340.7223 276.9095  1.00271389 22991
EUTELSAT KONNECT        
1 45027U 20005B   26023.63933765  .00000064  00000+0  00000+0 0  9998
2 45027   0.0669  95.0457 0001470 181.0228  84.2515  1.00270778 22882
